IRIDIUM 144             
1 43249U 18030A   23305.82045494  .00000376  00000+0  12711-3 0  9993
2 43249  86.3957 330.9624 0002289  97.5469 262.5987 14.34216343292777
IRIDIUM 149             
1 43250U 18030B   23306.17563542  .00000397  00000+0  13482-3 0  9992
2 43250  86.3956 330.7918 0002389  99.0892 261.0574 14.34215527292847
IRIDIUM 157             
1 43251U 18030C   23305.77605438  .00000381  00000+0  12883-3 0  9996
2 43251  86.3958 330.9909 0002151  87.3318 272.8124 14.34220745292762
IRIDIUM 140             
1 43252U 18030D   23306.49276273  .00000400  00000+0  13565-3 0  9998
2 43252  86.3958 330.7059 0002088 101.0514 259.0916 14.34222311292923
IRIDIUM 145             
1 43253U 18030E   23306.54985503  .00000048  00000+0  10007-4 0  9995
2 43253  86.3959 330.6564 0002468  98.9009 261.2466 14.34217431292865
IRIDIUM 146             
1 43254U 18030F   23306.53082463  .00000380  00000+0  12848-3 0  9991
2 43254  86.3956 330.6798 0002465  96.2915 263.8562 14.34217394292870
IRIDIUM 148             
1 43255U 18030G   23306.49911084  .00000283  00000+0  94030-4 0  9993
2 43255  86.3959 330.7215 0002564  91.1240 269.0250 14.34215965292913
IRIDIUM 142             
1 43256U 18030H   23306.53716807  .00000043  00000+0  81887-5 0  9996
2 43256  86.3954 330.6297 0002413  92.9428 267.2043 14.34216283292877
